{
  "features": [
    {
      "geometry": {
        "coordinates": [
          3.7841,
          3.3682
        ],
        "type": "Point"
      },
      "id": "shoe_track_0001",
      "properties": {
        "class": "shoe",
        "confidence": {
          "combined": 0.305,
          "detector": 0.47,
          "projection": 0.65
        },
        "coverage": {
          "coverage_confidence": 0.65,
          "map_image_marker": "clamped_to_edge",
          "region_status": "observed",
          "scope": "inside observed replay/map-frame projection coverage only"
        },
        "evidence_frame_refs": [
          "artifacts/vs04_shoe_detector_eval_bag/evidence_frames/bag_frame_0149_1784305467260649666_evidence.png",
          "artifacts/vs04_shoe_detector_eval_bag/evidence_frames/bag_frame_0298_1784305472226237684_evidence.png",
          "artifacts/vs04_shoe_detector_eval_bag/evidence_frames/bag_frame_0446_1784305477157278055_evidence.png",
          "artifacts/vs04_shoe_detector_eval_bag/evidence_frames/bag_frame_0595_1784305482121548820_evidence.png"
        ],
        "object_id": "shoe_track_0001",
        "observation_count": 4,
        "source": {
          "map_id": "vs02_replay_fixture_map",
          "run_id": "canonical_replay_run"
        },
        "status": "review",
        "timestamps": {
          "first_observed_ns": 1784305467260649666,
          "last_observed_ns": 1784305482121548820
        },
        "uncertainty": {
          "classification": "review-level uncertain detection; needs operator/model confirmation before treating as a confirmed shoe",
          "limits": [
            "calibration error: CameraInfo intrinsics and base_link->camera optical TF errors directly move projected points",
            "ground-plane assumption: each detection is projected from the image-footpoint ray to z=0 in base_link/map",
            "inaccessible regions: detections outside camera view or beyond reliable ground-plane intersection are absent, not free space",
            "occlusion: partially hidden shoes can move the apparent contact point away from the true object footprint",
            "pose drift: map-frame coordinates inherit SLAM/odometry drift and timestamp alignment error"
          ],
          "projection": "calibration error: CameraInfo intrinsics and base_link->camera optical TF errors directly move projected points; ground-plane assumption: each detection is projected from the image-footpoint ray to z=0 in base_link/map; inaccessible regions: detections outside camera view or beyond reliable ground-plane intersection are absent, not free space; occlusion: partially hidden shoes can move the apparent contact point away from the true object footprint; pose drift: map-frame coordinates inherit SLAM/odometry drift and timestamp alignment error"
        }
      },
      "type": "Feature"
    }
  ],
  "name": "sphero_rvr_semantic_shoe_map",
  "schema": "sphero_rvr_semantic_map.v1",
  "type": "FeatureCollection"
}
